EICK 200030Z 27004KT 9999 FEW012 BKN040 15/14 Q1025 NOSIG
EIDL 191730Z 23006KT 5000 +DZ OVC005 13/13 Q1023 RERA
EIDW 200030Z 26014KT 9999 FEW005 SCT007 BKN009 15/14 Q1022 NOSIG
EIKN 191800Z 25011KT 9999 OVC002 15/15 Q1023 NOSIG
EIME 200000Z 25010KT 6000 -DZ OVC005 15/14 Q1022
EIKY 191930Z 25007KT 3200 -RA SCT005 OVC016 15/14 Q1025
EINN 200030Z 25012KT 5000 -DZ SCT002 BKN004 15/14 Q1024 TEMPO 2000 BKN002
EISG 191700Z 25006KT 5000 ?VRA BKN010 OVC018 15/14 Q1022
EIWF 191930Z 31004KT 9999 SCT019 BKN050 18/15 Q1024
