EICK 192100Z 24011KT 9999 BKN009 BKN016 BKN250 15/14 Q1013 NOSIG
EIDL 191930Z 23018KT 9999 SCT009 OVC024 15/14 Q1007
EIDW 192100Z 24011KT 5000 -DZ FEW006 BKN010 BKN018 16/15 Q1010 TEMPO 4000
EIKN 191930Z 24010KT 9999 BKN008 BKN015 14/13 Q1008 NOSIG
EIME 192100Z 23015KT 9999 -RA FEW012 BKN016 BKN022 17/15 Q1010
EIKY 191900Z 25015KT 9999 SCT008 SCT015 BKN017 16/15 Q1012
EINN 192100Z 23017KT 9000 -RADZ FEW008 BKN016 15/13 Q1012 TEMPO 5000 BKN007
EISG 192030Z 24011KT 9999 BKN016 OVC022 15/13 Q1007
EIWF 192030Z 25008KT 190V300 6000 BKN003 14/14 Q1013 R21/1/////
