EICK 082230Z 22013KT 0600 R17/1500U R35/1300U -DZ FG BKN001 OVC002 14/14 Q1019 TEMPO 0400
EIDL 081900Z 18019G31KT 8000 OVC015 14/13 Q1013 REDZ
EIDW 082230Z 20011KT 9999 FEW012 SCT015 BKN024 14/12 Q1017 NOSIG
EIKN 081800Z 19020G30KT 170V230 9000 -RADZ OVC003 12/12 Q1014 TEMPO 3000
EIME 082200Z 22015KT 9999 FEW016 BKN160 14/12 Q1017
EIKY 081900Z 20007KT 170V240 9999 BKN018 BKN021 16/14 Q1018
EINN 082230Z 20008KT 7000 -DZ FEW009 BKN011 15/14 Q1017 NOSIG
EISG 082030Z 19008G22KT 140V250 9999 OVC010 15/13 Q1014
EIWF 081930Z 23014KT 200V280 6000 DZ BKN005 14/13 Q1020
