EICK 272230Z 19014KT 160V220 2000 -RA BKN003 14/14 Q1014 TEMPO 1200 BKN002
EIDL 271830Z 19012KT 9999 BKN035 BKN046 OVC060 17/12 Q1011
EIDW 272230Z 15006KT 9999 -RA FEW005 SCT020 BKN050 14/12 Q1014 NOSIG
EIKN 271800Z 18013KT 140V210 9999 -RADZ SCT015 BKN030 BKN070 14/14 Q1011 TEMPO 4000
EIME 272200Z 20010KT 9999 -RA FEW015 BKN100 14/12 Q1014
EIKY 271900Z 20020KT 9999 -RA SCT024 BKN029 15/13 Q1012
EINN 272230Z 15014KT 9999 -RA BKN017 OVC023 16/14 Q1011 NOSIG
EISG 271300Z 17007KT 130V210 9999 BKN026 BKN033 BKN055 16/12 Q1014
EIWF 271930Z 21014KT 180V240 6000 RA BKN007 15/14 Q1017 R21/1/////
