EICK 022230Z 17006KT 9999 BKN002 14/14 Q1021 NOSIG
EIDL 021700Z 36004KT 320V040 CAVOK 17/11 Q1018
EIDW 022230Z 14004KT 110V180 9999 FEW028 15/11 Q1021 NOSIG
EIKN 021800Z 14007KT 9000 -SHRA FEW014 SCT020CB BKN034 14/13 Q1017 NOSIG
EIME 022200Z 21013KT 9999 SCT200 14/11 Q1020
EIKY 021930Z 19006KT 160V230 9999 FEW037 17/11 Q1018
EINN 022230Z 15008KT 9999 FEW030 SCT080 BKN250 15/12 Q1020 NOSIG
EISG 022100Z 14007KT 999 FEW018 SCT025 15/12 Q1018
EIWF 021930Z 20008KT 9999 FEW011 SCT026 16/14 Q1021
