EICK 032300Z 13015KT 9999 OVC002 15/15 Q1010 +RA TEMPO 3000
EIDL 031730Z 13020KT 9999 FEW038 21/13 Q1018
EIDW 032300Z 09010KT 9999 FEW017 FEW025CB SCT030 15/12 Q1013 NOSIG
EIKN 031900Z 12013KT 090V170 9999 FEW018 SCT140 BKN220 18/10 Q1016 NOSIG
EIME 032300Z 09009KT 9999 FEW038 SCT080 BKN100 16/12 Q1013
EIKY 031930Z 12015KT 9999 BKN029 18/12 Q1012
EINN 032300Z 09014KT 9999 -RA SCT030 BKN050 BKN100 16/14 Q1009 TEMPO 4000 BKN013
EISG 032100Z 11014KT CAVOK 17/12 Q1015
EIWF 031930Z 10013KT 9999 FEW045 BKN070 17/12 Q1015
