EICK 051900Z 21012KT 9999 FEW004 SCT010 BKN024 09/08 Q1016 TEMPO 5000
EIDL 051700Z 18013KT 9999 SCT029 SCT035 OVC046 10/07 Q1014
EIDW 051900Z 13010KT 9999 FEW008 BKN016 BKN040 10/08 Q1017 NOSIG
EIKN 051900Z 17013KT 9999 SCT012 OVC034 08/07 Q1013 NOSIG
EIME 051900Z 19011KT 9999 BKN014 BKN024 10/09 Q1017
EIKY 051900Z 19015KT 9999 SCT031 BKN037 10/06 Q1014
EINN 051900Z 14009KT 9999 FEW012 SCT038 BKN050 09/08 Q1015 NOSIG
EISG 051630Z 15008KT 110V180 SCT020 BKN035 10/07 Q1015
EIWF 051900Z 20013KT 9999 BKN003 10/09 Q1018 R21/2/////
